[Satellite]
VERSION=1.1
NAME=RADUGA-1M 3 [+]
NICKNAME=RADUGA-1M 3 [+]
TLE1=1 39375U 13062A   17183.28660308 -.00000050  00000-0  00000-0 0  9998
TLE2=2 39375   0.0220  68.3912 0001705  43.2032 342.1193  1.00273251 13322
